[{"OBJECT_NAME":"STARLINK-3445","OBJECT_ID":"2022-016D","EPOCH":"2026-03-09T22:43:04.149120","MEAN_MOTION":15.08836037,"ECCENTRICITY":0.00013436,"INCLINATION":53.2193,"RA_OF_ASC_NODE":328.0547,"ARG_OF_PERICENTER":93.2392,"MEAN_ANOMALY":266.8754,"EPHEMERIS_TYPE":0,"CLASSIFICATION_TYPE":"U","NORAD_CAT_ID":51717,"ELEMENT_SET_NO":999,"REV_AT_EPOCH":22346,"BSTAR":4.293426e-6,"MEAN_MOTION_DOT":-2.2e-6,"MEAN_MOTION_DDOT":0},{"OBJECT_NAME":"DISKSAT C","OBJECT_ID":"2025-305A","EPOCH":"2026-03-09T19:16:32.318976","MEAN_MOTION":15.07852977,"ECCENTRICITY":0.00045341,"INCLINATION":45.0017,"RA_OF_ASC_NODE":250.1278,"ARG_OF_PERICENTER":310.7706,"MEAN_ANOMALY":49.2776,"EPHEMERIS_TYPE":0,"CLASSIFICATION_TYPE":"U","NORAD_CAT_ID":67219,"ELEMENT_SET_NO":999,"REV_AT_EPOCH":1231,"BSTAR":0.00075564202,"MEAN_MOTION_DOT":0.00011541,"MEAN_MOTION_DDOT":0}]
